[Satellite]
VERSION=1.1
NAME=STARLINK-1215
NICKNAME=STARLINK-1215
TLE1=1 45225U 20012AZ  20078.25001157  .00424801  00000-0  44188-2 0  9997
TLE2=2 45225  53.0009 121.1857 0001227  82.9819 349.2435 15.62681426  5018
STATUS=0
